OBJECT_NAME,OBJECT_ID,EPOCH,MEAN_MOTION,ECCENTRICITY,INCLINATION,RA_OF_ASC_NODE,ARG_OF_PERICENTER,MEAN_ANOMALY,EPHEMERIS_TYPE,CLASSIFICATION_TYPE,NORAD_CAT_ID,ELEMENT_SET_NO,REV_AT_EPOCH,BSTAR,MEAN_MOTION_DOT,MEAN_MOTION_DDOT
ONEWEB-0053,2020-008AC,2026-07-20T11:48:15.369984,13.10375557,.0001392,87.8818,29.6454,80.2463,279.8822,0,U,45157,999,31227,-.29133465E-3,-.89E-6,0
ONEWEB-0054,2020-008AD,2026-07-20T01:39:50.871456,13.10372843,.00018273,87.8816,29.7153,86.8353,273.2983,0,U,45158,999,31233,.22682435E-3,.92E-6,0
ONEWEB-0056,2020-008AE,2026-07-20T11:57:50.123520,13.10375836,.00020315,87.8829,29.6231,83.7525,276.3834,0,U,45159,999,31254,.7134035E-3,.262E-5,0
ONEWEB-0057,2020-008AF,2026-07-20T01:22:57.484128,13.10371170,.0001451,87.8819,29.7225,75.7910,284.3378,0,U,45160,999,31265,.18107756E-2,.645E-5,0
ONEWEB-0058,2020-008AG,2026-07-20T06:33:20.382048,13.10541413,.00019417,87.8815,29.6830,96.0731,264.0618,0,U,45161,999,31275,.16649561E-2,.595E-5,0
ONEWEB-0059,2020-008AH,2026-07-20T11:58:15.903552,13.10376965,.0001548,87.8821,29.6380,89.7256,270.4049,0,U,45162,999,31268,.73704876E-3,.27E-5,0
ONEWEB-0062,2020-008AJ,2026-07-20T01:32:20.057856,13.10369863,.00021397,87.8819,29.7144,94.4233,265.7139,0,U,45163,999,31249,.91364999E-3,.332E-5,0
ONEWEB-0065,2020-008AK,2026-07-20T11:30:55.869120,13.10373438,.00017411,87.8824,29.6397,78.5579,281.5743,0,U,45164,999,31224,-.16845466E-2,-.575E-5,0
ONEWEB-0066,2020-020A,2026-07-20T04:23:45.401568,13.11419343,.00017452,87.8885,14.4997,96.4894,263.6433,0,U,45424,999,30700,.19716079E-3,.83E-6,0
ONEWEB-0067,2020-020B,2026-07-20T10:47:39.557760,13.11427411,.0001688,87.8911,14.3754,87.6476,272.4845,0,U,45425,999,30709,-.10578126E-3,-.25E-6,0
ONEWEB-0080,2020-020C,2026-07-20T05:17:44.204928,13.11414364,.00023366,87.8900,14.4924,98.9870,261.1522,0,U,45426,999,30703,.15852907E-2,.575E-5,0
ONEWEB-0090,2020-020D,2026-07-20T04:09:21.928608,13.11415327,.00019005,87.8898,14.5059,91.5058,268.6288,0,U,45427,999,30699,.10279163E-2,.377E-5,0
ONEWEB-0061,2020-020E,2026-07-20T10:24:56.034432,13.11417538,.00018232,87.8897,14.4379,93.4572,266.6764,0,U,45428,999,30698,-.14350543E-2,-.496E-5,0
ONEWEB-0081,2020-020F,2026-07-20T09:58:17.379552,13.11415431,.00016352,87.8890,14.4510,92.6079,267.5236,0,U,45429,999,30709,-.32049808E-3,-.101E-5,0
ONEWEB-0069,2020-020G,2026-07-20T00:51:34.469568,13.11417323,.00016383,87.8892,14.5300,95.5535,264.5780,0,U,45430,999,30697,-.83131058E-3,-.282E-5,0
ONEWEB-0031,2020-020H,2026-07-20T10:52:01.282368,13.11420172,.00020092,87.8885,14.4495,93.5129,266.6229,0,U,45431,999,30701,.25498035E-3,.103E-5,0
ONEWEB-0027,2020-020J,2026-07-20T08:51:38.308896,13.17649639,.00022446,87.9153,359.2645,90.8928,269.2461,0,U,45432,999,31072,-.1877611E-3,-.6E-6,0
ONEWEB-0064,2020-020K,2026-07-20T10:49:33.941856,13.11418184,.00020235,87.8892,14.4431,91.1860,268.9500,0,U,45433,999,30704,-.75846738E-4,-.14E-6,0
ONEWEB-0018,2020-020L,2026-07-20T11:35:45.079296,13.11415390,.00017349,87.8890,14.4364,104.0885,256.0436,0,U,45434,999,30699,.87788717E-3,.324E-5,0
ONEWEB-0083,2020-020M,2026-07-20T05:51:54.605664,13.11416169,.00019002,87.8895,14.4793,93.7521,266.3824,0,U,45435,999,30700,.15465096E-2,.561E-5,0
ONEWEB-0095,2020-020N,2026-07-20T11:09:18.332928,13.11417170,.00021903,87.8898,14.4441,74.0776,286.0593,0,U,45436,999,30703,.13870963E-2,.504E-5,0
ONEWEB-0092,2020-020P,2026-07-20T10:03:23.680512,13.11412633,.00017614,87.8893,14.4442,98.4649,261.6679,0,U,45437,999,30714,-.63496176E-3,-.212E-5,0
ONEWEB-0085,2020-020Q,2026-07-20T00:21:54.485280,13.11416458,.0001858,87.8890,14.5297,91.7887,268.3454,0,U,45438,999,30697,.14295258E-2,.519E-5,0
ONEWEB-0096,2020-020R,2026-07-20T11:23:45.177216,13.11416122,.00018978,87.8895,14.4359,88.3152,271.8194,0,U,45439,999,30702,.14842349E-2,.539E-5,0
ONEWEB-0037,2020-020S,2026-07-20T10:11:29.200128,13.11522635,.00010432,87.8907,14.4194,101.2993,258.8252,0,U,45440,999,30705,.34368071E-1,.12228E-3,0
ONEWEB-0042,2020-020T,2026-07-20T11:08:54.542688,13.11418280,.00017305,87.8895,14.4344,91.2194,268.9132,0,U,45441,999,30702,.15239684E-2,.553E-5,0
ONEWEB-0098,2020-020U,2026-07-20T09:13:08.083776,13.11416714,.0001896,87.8895,14.4591,92.8414,267.2931,0,U,45442,999,30699,.91174904E-3,.336E-5,0
ONEWEB-0055,2020-020V,2026-07-20T10:32:16.315008,13.11418015,.00019137,87.8896,14.4476,92.5763,267.5585,0,U,45443,999,30697,-.11741306E-2,-.403E-5,0
ONEWEB-0093,2020-020W,2026-07-20T10:16:28.952832,13.10892053,.00015323,87.8896,14.4468,92.9808,267.1495,0,U,45444,999,30703,-.15402242E-2,-.529E-5,0
ONEWEB-0029,2020-020X,2026-07-20T05:12:51.074784,13.11416781,.00016113,87.8887,14.4913,95.2793,264.8519,0,U,45445,999,30698,-.67279392E-3,-.226E-5,0
