ONEWEB-0053             
1 45157U 20008AC  26201.49184456 -.00000089  00000+0 -29133-3 0  9993
2 45157  87.8818  29.6454 0001392  80.2463 279.8822 13.10375557312272
ONEWEB-0054             
1 45158U 20008AD  26201.06933879  .00000092  00000+0  22682-3 0  9992
2 45158  87.8816  29.7153 0001827  86.8353 273.2983 13.10372843312339
ONEWEB-0056             
1 45159U 20008AE  26201.49849680  .00000262  00000+0  71340-3 0  9990
2 45159  87.8829  29.6231 0002031  83.7525 276.3834 13.10375836312542
ONEWEB-0057             
1 45160U 20008AF  26201.05760977  .00000645  00000+0  18108-2 0  9992
2 45160  87.8819  29.7225 0001451  75.7910 284.3378 13.10371170312652
ONEWEB-0058             
1 45161U 20008AG  26201.27315257  .00000595  00000+0  16650-2 0  9998
2 45161  87.8815  29.6830 0001941  96.0731 264.0618 13.10541413312753
ONEWEB-0059             
1 45162U 20008AH  26201.49879518  .00000270  00000+0  73705-3 0  9993
2 45162  87.8821  29.6380 0001548  89.7256 270.4049 13.10376965312684
ONEWEB-0062             
1 45163U 20008AJ  26201.06412104  .00000332  00000+0  91365-3 0  9992
2 45163  87.8819  29.7144 0002139  94.4233 265.7139 13.10369863312491
ONEWEB-0065             
1 45164U 20008AK  26201.47981330 -.00000575  00000+0 -16845-2 0  9990
2 45164  87.8824  29.6397 0001741  78.5579 281.5743 13.10373438312244
ONEWEB-0066             
1 45424U 20020A   26201.18316437  .00000083  00000+0  19716-3 0  9994
2 45424  87.8885  14.4997 0001745  96.4894 263.6433 13.11419343307003
ONEWEB-0067             
1 45425U 20020B   26201.44976340 -.00000025  00000+0 -10578-3 0  9994
2 45425  87.8911  14.3754 0001688  87.6476 272.4845 13.11427411307097
ONEWEB-0080             
1 45426U 20020C   26201.22065052  .00000575  00000+0  15853-2 0  9998
2 45426  87.8900  14.4924 0002336  98.9870 261.1522 13.11414364307034
ONEWEB-0090             
1 45427U 20020D   26201.17317047  .00000377  00000+0  10279-2 0  9994
2 45427  87.8898  14.5059 0001900  91.5058 268.6288 13.11415327306999
ONEWEB-0061             
1 45428U 20020E   26201.43398188 -.00000496  00000+0 -14351-2 0  9998
2 45428  87.8897  14.4379 0001823  93.4572 266.6764 13.11417538306981
ONEWEB-0081             
1 45429U 20020F   26201.41547893 -.00000101  00000+0 -32050-3 0  9996
2 45429  87.8890  14.4510 0001635  92.6079 267.5236 13.11415431307093
ONEWEB-0069             
1 45430U 20020G   26201.03581562 -.00000282  00000+0 -83131-3 0  9993
2 45430  87.8892  14.5300 0001638  95.5535 264.5780 13.11417323306976
ONEWEB-0031             
1 45431U 20020H   26201.45279262  .00000103  00000+0  25498-3 0  9993
2 45431  87.8885  14.4495 0002009  93.5129 266.6229 13.11420172307016
ONEWEB-0027             
1 45432U 20020J   26201.36919339 -.00000060  00000+0 -18776-3 0  9995
2 45432  87.9153 359.2645 0002244  90.8928 269.2461 13.17649639310727
ONEWEB-0064             
1 45433U 20020K   26201.45108729 -.00000014  00000+0 -75847-4 0  9991
2 45433  87.8892  14.4431 0002023  91.1860 268.9500 13.11418184307048
ONEWEB-0018             
1 45434U 20020L   26201.48316064  .00000324  00000+0  87789-3 0  9997
2 45434  87.8890  14.4364 0001734 104.0885 256.0436 13.11415390306996
ONEWEB-0083             
1 45435U 20020M   26201.24438201  .00000561  00000+0  15465-2 0  9994
2 45435  87.8895  14.4793 0001900  93.7521 266.3824 13.11416169307007
ONEWEB-0095             
1 45436U 20020N   26201.46479552  .00000504  00000+0  13871-2 0  9999
2 45436  87.8898  14.4441 0002190  74.0776 286.0593 13.11417170307035
ONEWEB-0092             
1 45437U 20020P   26201.41902408 -.00000212  00000+0 -63496-3 0  9993
2 45437  87.8893  14.4442 0001761  98.4649 261.6679 13.11412633307149
ONEWEB-0085             
1 45438U 20020Q   26201.01521395  .00000519  00000+0  14295-2 0  9992
2 45438  87.8890  14.5297 0001858  91.7887 268.3454 13.11416458306977
ONEWEB-0096             
1 45439U 20020R   26201.47482844  .00000539  00000+0  14842-2 0  9998
2 45439  87.8895  14.4359 0001897  88.3152 271.8194 13.11416122307026
ONEWEB-0037             
1 45440U 20020S   26201.42464352  .00012228  00000+0  34368-1 0  9991
2 45440  87.8907  14.4194 0001043 101.2993 258.8252 13.11522635307050
ONEWEB-0042             
1 45441U 20020T   26201.46452017  .00000553  00000+0  15240-2 0  9998
2 45441  87.8895  14.4344 0001730  91.2194 268.9132 13.11418280307024
ONEWEB-0098             
1 45442U 20020U   26201.38412134  .00000336  00000+0  91175-3 0  9997
2 45442  87.8895  14.4591 0001896  92.8414 267.2931 13.11416714306998
ONEWEB-0055             
1 45443U 20020V   26201.43907772 -.00000403  00000+0 -11741-2 0  9998
2 45443  87.8896  14.4476 0001913  92.5763 267.5585 13.11418015306978
ONEWEB-0093             
1 45444U 20020W   26201.42811288 -.00000529  00000+0 -15402-2 0  9991
2 45444  87.8896  14.4468 0001532  92.9808 267.1495 13.10892053307032
ONEWEB-0029             
1 45445U 20020X   26201.21725781 -.00000226  00000+0 -67279-3 0  9995
2 45445  87.8887  14.4913 0001611  95.2793 264.8519 13.11416781306980
